start=new Date('2022-04-21T00:00:00.000Z').valueOf();
sats=[{"OBJECT_TYPE":"PAYLOAD","CENTER_NAME":"EARTH","LAUNCH_DATE":"2021-12-02","MEAN_MOTION":"15.08868592","APOAPSIS":"541.107","REF_FRAME":"TEME","DECAY_DATE":null,"TLE_LINE1":"1 49733U 21115K   22110.91667824 -.00032631  00000-0 -20398-2 0  9996","ELEMENT_SET_NO":"999","EPOCH":"2022-04-20T22:00:00.999936","TIME_SYSTEM":"UTC","MEAN_MOTION_DDOT":"0.0000000000000","MEAN_ELEMENT_THEORY":"SGP4","COUNTRY_CODE":"US","PERIAPSIS":"538.209","CLASSIFICATION_TYPE":"U","TLE_LINE2":"2 49733  53.2156  48.2501 0002095  42.1422 307.6300 15.08868592  3588","OBJECT_NAME":"STARLINK-3252","ARG_OF_PERICENTER":"42.1422","REV_AT_EPOCH":"358","INCLINATION":"53.2156","MEAN_ANOMALY":"307.6300","RA_OF_ASC_NODE":"48.2501","OBJECT_ID":"2021-115K","SEMIMAJOR_AXIS":"6917.793","RCS_SIZE":"LARGE","SITE":"AFETR","MEAN_MOTION_DOT":"-0.00032631","GP_ID":"201716712","ECCENTRICITY":"0.00020950","BSTAR":"-0.00203980000000","EPHEMERIS_TYPE":"0","FILE":"3409979","PERIOD":"95.436","NORAD_CAT_ID":"49733"},{"MEAN_ANOMALY":"197.2396","RA_OF_ASC_NODE":"38.2301","INCLINATION":"53.2194","REV_AT_EPOCH":"358","ARG_OF_PERICENTER":"47.5396","GP_ID":"201715460","OBJECT_ID":"2021-115L","SEMIMAJOR_AXIS":"6917.852","MEAN_MOTION_DOT":"-0.00031514","SITE":"AFETR","RCS_SIZE":"LARGE","BSTAR":"-0.00197010000000","ECCENTRICITY":"0.00020920","FILE":"3409979","PERIOD":"95.437","NORAD_CAT_ID":"49734","EPHEMERIS_TYPE":"0","MEAN_MOTION":"15.08849235","OBJECT_TYPE":"PAYLOAD","LAUNCH_DATE":"2021-12-02","CENTER_NAME":"EARTH","TLE_LINE1":"1 49734U 21115L   22110.91667824 -.00031514  00000-0 -19701-2 0  9992","DECAY_DATE":null,"APOAPSIS":"541.164","REF_FRAME":"TEME","MEAN_MOTION_DDOT":"0.0000000000000","EPOCH":"2022-04-20T22:00:00.999936","TIME_SYSTEM":"UTC","ELEMENT_SET_NO":"999","COUNTRY_CODE":"US","CLASSIFICATION_TYPE":"U","PERIAPSIS":"538.270","OBJECT_NAME":"STARLINK-3238","TLE_LINE2":"2 49734  53.2194  38.2301 0002092  47.5396 197.2396 15.08849235  3585","MEAN_ELEMENT_THEORY":"SGP4"},{"CENTER_NAME":"EARTH","LAUNCH_DATE":"2021-12-02","OBJECT_TYPE":"PAYLOAD","MEAN_MOTION":"15.08845092","APOAPSIS":"541.139","REF_FRAME":"TEME","DECAY_DATE":null,"TLE_LINE1":"1 49735U 21115M   22110.91667824 -.00019085  00000-0 -11840-2 0  9998","ELEMENT_SET_NO":"999","TIME_SYSTEM":"UTC","EPOCH":"2022-04-20T22:00:00.999936","MEAN_MOTION_DDOT":"0.0000000000000","MEAN_ELEMENT_THEORY":"SGP4","TLE_LINE2":"2 49735  53.2157  48.2439 0002037  39.3634 290.4229 15.08845092  3589","OBJECT_NAME":"STARLINK-3113","PERIAPSIS":"538.321","COUNTRY_CODE":"US","CLASSIFICATION_TYPE":"U","ARG_OF_PERICENTER":"39.3634","REV_AT_EPOCH":"358","INCLINATION":"53.2157","RA_OF_ASC_NODE":"48.2439","MEAN_ANOMALY":"290.4229","SITE":"AFETR","RCS_SIZE":"LARGE","MEAN_MOTION_DOT":"-0.00019085","SEMIMAJOR_AXIS":"6917.865","OBJECT_ID":"2021-115M","GP_ID":"201715210","ECCENTRICITY":"0.00020370","BSTAR":"-0.00118400000000","EPHEMERIS_TYPE":"0","NORAD_CAT_ID":"49735","PERIOD":"95.437","FILE":"3409979"},{"MEAN_MOTION_DDOT":"0.0000000000000","ELEMENT_SET_NO":"999","TIME_SYSTEM":"UTC","EPOCH":"2022-04-20T22:00:00.999936","COUNTRY_CODE":"US","CLASSIFICATION_TYPE":"U","PERIAPSIS":"538.175","OBJECT_NAME":"STARLINK-3148","TLE_LINE2":"2 49736  53.2194  38.2295 0002272  33.4393 171.3184 15.08839702  3586","MEAN_ELEMENT_THEORY":"SGP4","MEAN_MOTION":"15.08839702","OBJECT_TYPE":"PAYLOAD","CENTER_NAME":"EARTH","LAUNCH_DATE":"2021-12-02","TLE_LINE1":"1 49736U 21115N   22110.91667824 -.00010139  00000-0 -61979-3 0  9999","REF_FRAME":"TEME","APOAPSIS":"541.318","DECAY_DATE":null,"BSTAR":"-0.00061979000000","ECCENTRICITY":"0.00022720","FILE":"3409979","PERIOD":"95.438","NORAD_CAT_ID":"49736","EPHEMERIS_TYPE":"0","INCLINATION":"53.2194","MEAN_ANOMALY":"171.3184","RA_OF_ASC_NODE":"38.2295","ARG_OF_PERICENTER":"33.4393","REV_AT_EPOCH":"358","GP_ID":"201716462","OBJECT_ID":"2021-115N","SEMIMAJOR_AXIS":"6917.881","SITE":"AFETR","MEAN_MOTION_DOT":"-0.00010139","RCS_SIZE":"LARGE"},{"MEAN_MOTION_DDOT":"0.0000000000000","EPOCH":"2022-04-20T22:00:00.999936","TIME_SYSTEM":"UTC","ELEMENT_SET_NO":"999","TLE_LINE2":"2 49737  53.2209  38.2369 0002065  37.4993 187.2744 15.08869336  3580","OBJECT_NAME":"STARLINK-3225","CLASSIFICATION_TYPE":"U","COUNTRY_CODE":"US","PERIAPSIS":"538.227","MEAN_ELEMENT_THEORY":"SGP4","MEAN_MOTION":"15.08869336","LAUNCH_DATE":"2021-12-02","CENTER_NAME":"EARTH","OBJECT_TYPE":"PAYLOAD","TLE_LINE1":"1 49737U 21115P   22110.91667824 -.00053447  00000-0 -33623-2 0  9993","DECAY_DATE":null,"APOAPSIS":"541.084","REF_FRAME":"TEME","BSTAR":"-0.00336230000000","ECCENTRICITY":"0.00020650","NORAD_CAT_ID":"49737","PERIOD":"95.436","FILE":"3409979","EPHEMERIS_TYPE":"0","MEAN_ANOMALY":"187.2744","RA_OF_ASC_NODE":"38.2369","INCLINATION":"53.2209","REV_AT_EPOCH":"358","ARG_OF_PERICENTER":"37.4993","GP_ID":"201716212","MEAN_MOTION_DOT":"-0.00053447","SITE":"AFETR","RCS_SIZE":"LARGE","OBJECT_ID":"2021-115P","SEMIMAJOR_AXIS":"6917.791"},{"EPHEMERIS_TYPE":"0","NORAD_CAT_ID":"49738","FILE":"3409979","PERIOD":"95.437","ECCENTRICITY":"0.00021290","BSTAR":"-0.00073144000000","MEAN_MOTION_DOT":"-0.00011913","SITE":"AFETR","RCS_SIZE":"LARGE","OBJECT_ID":"2021-115Q","SEMIMAJOR_AXIS":"6917.860","GP_ID":"201714960","ARG_OF_PERICENTER":"36.7553","REV_AT_EPOCH":"359","INCLINATION":"53.2200","MEAN_ANOMALY":"148.0164","RA_OF_ASC_NODE":"38.2397","MEAN_ELEMENT_THEORY":"SGP4","TLE_LINE2":"2 49738  53.2200  38.2397 0002129  36.7553 148.0164 15.08846721  3593","OBJECT_NAME":"STARLINK-3143","CLASSIFICATION_TYPE":"U","COUNTRY_CODE":"US","PERIAPSIS":"538.252","ELEMENT_SET_NO":"999","EPOCH":"2022-04-20T22:00:00.999936","TIME_SYSTEM":"UTC","MEAN_MOTION_DDOT":"0.0000000000000","REF_FRAME":"TEME","APOAPSIS":"541.198","DECAY_DATE":null,"TLE_LINE1":"1 49738U 21115Q   22110.91667824 -.00011913  00000-0 -73144-3 0  9999","CENTER_NAME":"EARTH","LAUNCH_DATE":"2021-12-02","OBJECT_TYPE":"PAYLOAD","MEAN_MOTION":"15.08846721"},{"TLE_LINE1":"1 49739U 21115R   22110.91667824 -.00053499  00000-0 -33651-2 0  9993","DECAY_DATE":null,"REF_FRAME":"TEME","APOAPSIS":"541.046","MEAN_MOTION":"15.08874733","LAUNCH_DATE":"2021-12-02","CENTER_NAME":"EARTH","OBJECT_TYPE":"PAYLOAD","OBJECT_NAME":"STARLINK-3155","TLE_LINE2":"2 49739  53.2127  48.2512 0002033  38.7003 251.0740 15.08874733 22318","CLASSIFICATION_TYPE":"U","COUNTRY_CODE":"US","PERIAPSIS":"538.233","MEAN_ELEMENT_THEORY":"SGP4","MEAN_MOTION_DDOT":"0.0000000000000","TIME_SYSTEM":"UTC","EPOCH":"2022-04-20T22:00:00.999936","ELEMENT_SET_NO":"999","GP_ID":"201691205","SITE":"AFETR","RCS_SIZE":"LARGE","MEAN_MOTION_DOT":"-0.00053499","OBJECT_ID":"2021-115R","SEMIMAJOR_AXIS":"6917.774","MEAN_ANOMALY":"251.0740","RA_OF_ASC_NODE":"48.2512","INCLINATION":"53.2127","REV_AT_EPOCH":"2231","ARG_OF_PERICENTER":"38.7003","NORAD_CAT_ID":"49739","PERIOD":"95.435","FILE":"3409917","EPHEMERIS_TYPE":"0","BSTAR":"-0.00336510000000","ECCENTRICITY":"0.00020330"},{"ELEMENT_SET_NO":"999","EPOCH":"2022-04-20T22:00:00.999936","TIME_SYSTEM":"UTC","MEAN_MOTION_DDOT":"0.0000000000000","MEAN_ELEMENT_THEORY":"SGP4","TLE_LINE2":"2 49740  53.2169  38.2526 0002176  39.3795  85.3943 15.08845107 22454","OBJECT_NAME":"STARLINK-3226","COUNTRY_CODE":"US","PERIAPSIS":"538.224","CLASSIFICATION_TYPE":"U","CENTER_NAME":"EARTH","LAUNCH_DATE":"2021-12-02","OBJECT_TYPE":"PAYLOAD","MEAN_MOTION":"15.08845107","REF_FRAME":"TEME","APOAPSIS":"541.235","DECAY_DATE":null,"TLE_LINE1":"1 49740U 21115S   22110.91667824 -.00027589  00000-0 -17217-2 0  9996","ECCENTRICITY":"0.00021760","BSTAR":"-0.00172170000000","EPHEMERIS_TYPE":"0","NORAD_CAT_ID":"49740","FILE":"3409928","PERIOD":"95.437","ARG_OF_PERICENTER":"39.3795","REV_AT_EPOCH":"2245","INCLINATION":"53.2169","RA_OF_ASC_NODE":"38.2526","MEAN_ANOMALY":"85.3943","MEAN_MOTION_DOT":"-0.00027589","SITE":"AFETR","RCS_SIZE":"LARGE","SEMIMAJOR_AXIS":"6917.865","OBJECT_ID":"2021-115S","GP_ID":"201691885"},{"BSTAR":"0.00076812000000","ECCENTRICITY":"0.00019890","PERIOD":"95.438","FILE":"3409930","NORAD_CAT_ID":"49741","EPHEMERIS_TYPE":"0","INCLINATION":"53.2167","RA_OF_ASC_NODE":"38.2539","MEAN_ANOMALY":"119.0739","ARG_OF_PERICENTER":"45.6871","REV_AT_EPOCH":"2245","GP_ID":"201691414","SEMIMAJOR_AXIS":"6917.910","OBJECT_ID":"2021-115T","SITE":"AFETR","RCS_SIZE":"LARGE","MEAN_MOTION_DOT":"0.00011955","MEAN_MOTION_DDOT":"0.0000000000000","ELEMENT_SET_NO":"999","TIME_SYSTEM":"UTC","EPOCH":"2022-04-20T22:00:00.999936","COUNTRY_CODE":"US","PERIAPSIS":"538.399","CLASSIFICATION_TYPE":"U","OBJECT_NAME":"STARLINK-3244","TLE_LINE2":"2 49741  53.2167  38.2539 0001989  45.6871 119.0739 15.08830233 22455","MEAN_ELEMENT_THEORY":"SGP4","MEAN_MOTION":"15.08830233","OBJECT_TYPE":"PAYLOAD","CENTER_NAME":"EARTH","LAUNCH_DATE":"2021-12-02","TLE_LINE1":"1 49741U 21115T   22110.91667824  .00011955  00000-0  76812-3 0  9992","APOAPSIS":"541.151","REF_FRAME":"TEME","DECAY_DATE":null},{"NORAD_CAT_ID":"49742","PERIOD":"95.437","FILE":"3409930","EPHEMERIS_TYPE":"0","BSTAR":"-0.00159760000000","ECCENTRICITY":"0.00020990","GP_ID":"201691918","MEAN_MOTION_DOT":"-0.00025631","SITE":"AFETR","RCS_SIZE":"LARGE","SEMIMAJOR_AXIS":"6917.852","OBJECT_ID":"2021-115U","INCLINATION":"53.2166","RA_OF_ASC_NODE":"38.2553","MEAN_ANOMALY":"45.7085","ARG_OF_PERICENTER":"39.0642","REV_AT_EPOCH":"2245","TLE_LINE2":"2 49742  53.2166  38.2553 0002099  39.0642  45.7085 15.08849357 22453","OBJECT_NAME":"STARLINK-3202","COUNTRY_CODE":"US","PERIAPSIS":"538.265","CLASSIFICATION_TYPE":"U","MEAN_ELEMENT_THEORY":"SGP4","MEAN_MOTION_DDOT":"0.0000000000000","ELEMENT_SET_NO":"999","EPOCH":"2022-04-20T22:00:00.999936","TIME_SYSTEM":"UTC","TLE_LINE1":"1 49742U 21115U   22110.91667824 -.00025631  00000-0 -15976-2 0  9994","REF_FRAME":"TEME","APOAPSIS":"541.169","DECAY_DATE":null,"MEAN_MOTION":"15.08849357","CENTER_NAME":"EARTH","LAUNCH_DATE":"2021-12-02","OBJECT_TYPE":"PAYLOAD"}];
